{
  "type": "FeatureCollection",
  "features": [
    {
      "type": "Feature",
      "properties": {
        "norad_id": 35061,
        "name": "COSMOS 2251 DEB",
        "group": "cosmos-2251-debris",
        "lat": -43.634278629527444,
        "lon": -51.85703688222639,
        "alt_km": 689.869866518351,
        "timestamp": "2025-12-03T06:58:43.637991+00:00",
        "meta_object_name": "COSMOS 2251 DEB",
        "meta_object_id": "1993-036AHQ",
        "meta_epoch": "2025-11-30T23:33:59.477760",
        "meta_mean_motion": 14.67665765,
        "meta_eccentricity": 0.00387935,
        "meta_inclination": 74.045,
        "meta_ra_of_asc_node": 328.4273,
        "meta_arg_of_pericenter": 82.9269,
        "meta_mean_anomaly": 277.631,
        "meta_ephemeris_type": 0,
        "meta_classification_type": "U",
        "meta_norad_cat_id": 35061,
        "meta_element_set_no": 999,
        "meta_rev_at_epoch": 88402,
        "meta_bstar": 0.00075389945,
        "meta_mean_motion_dot": 4.308e-05,
        "meta_mean_motion_ddot": 0,
        "tle_line1": "1 35061U 93036AHQ 25334.98193840  .00004308  00000+0  75390-3 0  9996",
        "tle_line2": "2 35061  74.0450 328.4273 0038793  82.9269 277.6310 14.67665765884023"
      },
      "geometry": {
        "type": "Point",
        "coordinates": [
          -51.85703688222639,
          -43.634278629527444
        ]
      }
    },
    {
      "type": "Feature",
      "properties": {
        "norad_id": 35062,
        "name": "COSMOS 2251 DEB",
        "group": "cosmos-2251-debris",
        "lat": 72.95911990129467,
        "lon": -138.45119621814206,
        "alt_km": 719.4108503172265,
        "timestamp": "2025-12-03T06:58:43.638001+00:00",
        "meta_object_name": "COSMOS 2251 DEB",
        "meta_object_id": "1993-036AHR",
        "meta_epoch": "2025-12-01T08:58:12.976320",
        "meta_mean_motion": 14.22770227,
        "meta_eccentricity": 0.01291712,
        "meta_inclination": 74.0782,
        "meta_ra_of_asc_node": 113.6209,
        "meta_arg_of_pericenter": 116.5829,
        "meta_mean_anomaly": 244.8622,
        "meta_ephemeris_type": 0,
        "meta_classification_type": "U",
        "meta_norad_cat_id": 35062,
        "meta_element_set_no": 999,
        "meta_rev_at_epoch": 85337,
        "meta_bstar": 0.0022023834,
        "meta_mean_motion_dot": 5.359e-05,
        "meta_mean_motion_ddot": 0,
        "tle_line1": "1 35062U 93036AHR 25335.37376130  .00005359  00000+0  22024-2 0  9998",
        "tle_line2": "2 35062  74.0782 113.6209 0129171 116.5829 244.8622 14.22770227853379"
      },
      "geometry": {
        "type": "Point",
        "coordinates": [
          -138.45119621814206,
          72.95911990129467
        ]
      }
    },
    {
      "type": "Feature",
      "properties": {
        "norad_id": 35065,
        "name": "COSMOS 2251 DEB",
        "group": "cosmos-2251-debris",
        "lat": 73.86297025425723,
        "lon": -65.97713907730002,
        "alt_km": 737.0470654166738,
        "timestamp": "2025-12-03T06:58:43.638011+00:00",
        "meta_object_name": "COSMOS 2251 DEB",
        "meta_object_id": "1993-036AHU",
        "meta_epoch": "2025-11-28T23:36:19.413792",
        "meta_mean_motion": 14.45665304,
        "meta_eccentricity": 0.00193805,
        "meta_inclination": 74.0201,
        "meta_ra_of_asc_node": 220.0123,
        "meta_arg_of_pericenter": 347.0058,
        "meta_mean_anomaly": 13.0597,
        "meta_ephemeris_type": 0,
        "meta_classification_type": "U",
        "meta_norad_cat_id": 35065,
        "meta_element_set_no": 999,
        "meta_rev_at_epoch": 68152,
        "meta_bstar": 0.00046954745,
        "meta_mean_motion_dot": 1.638e-05,
        "meta_mean_motion_ddot": 0,
        "tle_line1": "1 35065U 93036AHU 25332.98355803  .00001638  00000+0  46955-3 0  9995",
        "tle_line2": "2 35065  74.0201 220.0123 0019380 347.0058  13.0597 14.45665304681528"
      },
      "geometry": {
        "type": "Point",
        "coordinates": [
          -65.97713907730002,
          73.86297025425723
        ]
      }
    },
    {
      "type": "Feature",
      "properties": {
        "norad_id": 35071,
        "name": "COSMOS 2251 DEB",
        "group": "cosmos-2251-debris",
        "lat": 28.6942631475276,
        "lon": 3.7882171862248035,
        "alt_km": 529.7883524944082,
        "timestamp": "2025-12-03T06:58:43.638021+00:00",
        "meta_object_name": "COSMOS 2251 DEB",
        "meta_object_id": "1993-036AJA",
        "meta_epoch": "2025-11-29T00:05:19.896000",
        "meta_mean_motion": 15.0306331,
        "meta_eccentricity": 0.00683354,
        "meta_inclination": 73.9323,
        "meta_ra_of_asc_node": 201.6723,
        "meta_arg_of_pericenter": 102.3686,
        "meta_mean_anomaly": 258.5162,
        "meta_ephemeris_type": 0,
        "meta_classification_type": "U",
        "meta_norad_cat_id": 35071,
        "meta_element_set_no": 999,
        "meta_rev_at_epoch": 67330,
        "meta_bstar": 0.00075428024,
        "meta_mean_motion_dot": 0.00010673,
        "meta_mean_motion_ddot": 0,
        "tle_line1": "1 35071U 93036AJA 25333.00370250  .00010673  00000+0  75428-3 0  9995",
        "tle_line2": "2 35071  73.9323 201.6723 0068335 102.3686 258.5162 15.03063310673307"
      },
      "geometry": {
        "type": "Point",
        "coordinates": [
          3.7882171862248035,
          28.6942631475276
        ]
      }
    },
    {
      "type": "Feature",
      "properties": {
        "norad_id": 35073,
        "name": "COSMOS 2251 DEB",
        "group": "cosmos-2251-debris",
        "lat": 3.4070655645438874,
        "lon": -9.188604448058625,
        "alt_km": 570.3186976749303,
        "timestamp": "2025-12-03T06:58:43.638031+00:00",
        "meta_object_name": "COSMOS 2251 DEB",
        "meta_object_id": "1993-036AJC",
        "meta_epoch": "2025-11-29T08:29:21.429600",
        "meta_mean_motion": 14.99364384,
        "meta_eccentricity": 0.00097336,
        "meta_inclination": 74.0024,
        "meta_ra_of_asc_node": 357.8403,
        "meta_arg_of_pericenter": 101.5288,
        "meta_mean_anomaly": 258.6992,
        "meta_ephemeris_type": 0,
        "meta_classification_type": "U",
        "meta_norad_cat_id": 35073,
        "meta_element_set_no": 999,
        "meta_rev_at_epoch": 67278,
        "meta_bstar": 0.00211185,
        "meta_mean_motion_dot": 0.00025921,
        "meta_mean_motion_ddot": 0,
        "tle_line1": "1 35073U 93036AJC 25333.35372025  .00025921  00000+0  21119-2 0  9996",
        "tle_line2": "2 35073  74.0024 357.8403 0009733 101.5288 258.6992 14.99364384672786"
      },
      "geometry": {
        "type": "Point",
        "coordinates": [
          -9.188604448058625,
          3.4070655645438874
        ]
      }
    },
    {
      "type": "Feature",
      "properties": {
        "norad_id": 35280,
        "name": "COSMOS 2251 DEB",
        "group": "cosmos-2251-debris",
        "lat": 62.49609630304782,
        "lon": -129.446534398577,
        "alt_km": 21.652261486277894,
        "timestamp": "2025-12-03T06:58:43.638041+00:00",
        "meta_object_name": "COSMOS 2251 DEB",
        "meta_object_id": "1993-036AJJ",
        "meta_epoch": "2025-11-12T05:44:02.487552",
        "meta_mean_motion": 15.48119691,
        "meta_eccentricity": 0.00063876,
        "meta_inclination": 73.9815,
        "meta_ra_of_asc_node": 131.656,
        "meta_arg_of_pericenter": 153.4254,
        "meta_mean_anomaly": 206.7286,
        "meta_ephemeris_type": 0,
        "meta_classification_type": "U",
        "meta_norad_cat_id": 35280,
        "meta_element_set_no": 999,
        "meta_rev_at_epoch": 87074,
        "meta_bstar": 0.018411483,
        "meta_mean_motion_dot": 0.01068411,
        "meta_mean_motion_ddot": 0,
        "tle_line1": "1 35280U 93036AJJ 25316.23891768  .01068411  00000+0  18411-1 0  9996",
        "tle_line2": "2 35280  73.9815 131.6560 0006387 153.4254 206.7286 15.48119691870745"
      },
      "geometry": {
        "type": "Point",
        "coordinates": [
          -129.446534398577,
          62.49609630304782
        ]
      }
    },
    {
      "type": "Feature",
      "properties": {
        "norad_id": 35284,
        "name": "COSMOS 2251 DEB",
        "group": "cosmos-2251-debris",
        "lat": 31.801101943231387,
        "lon": -67.96324666949913,
        "alt_km": 752.1794129647642,
        "timestamp": "2025-12-03T06:58:43.638051+00:00",
        "meta_object_name": "COSMOS 2251 DEB",
        "meta_object_id": "1993-036AJN",
        "meta_epoch": "2025-12-01T13:38:31.155360",
        "meta_mean_motion": 14.382963,
        "meta_eccentricity": 0.00163281,
        "meta_inclination": 74.049,
        "meta_ra_of_asc_node": 284.9919,
        "meta_arg_of_pericenter": 3.7139,
        "meta_mean_anomaly": 114.9177,
        "meta_ephemeris_type": 0,
        "meta_classification_type": "U",
        "meta_norad_cat_id": 35284,
        "meta_element_set_no": 999,
        "meta_rev_at_epoch": 65365,
        "meta_bstar": 0.00020439824,
        "meta_mean_motion_dot": 5.97e-06,
        "meta_mean_motion_ddot": 0,
        "tle_line1": "1 35284U 93036AJN 25335.56841615  .00000597  00000+0  20440-3 0  9990",
        "tle_line2": "2 35284  74.0490 284.9919 0016328   3.7139 114.9177 14.38296300653654"
      },
      "geometry": {
        "type": "Point",
        "coordinates": [
          -67.96324666949913,
          31.801101943231387
        ]
      }
    }
  ]
}